{"type":"Feature","properties":{"catalog_number":5,"start":"2026-08-23 12:00:00","duration_seconds":86400,"step_seconds":300},"geometry":{"type":"LineString","coordinates":[[-116.93536462320006,-10.617731432102136,1801.5883865285805],[-104.45245944385837,-18.708364717630392,1430.2641801648188],[-89.19964496895308,-26.2891008732744,1099.482515533923],[-70.41304799875715,-32.08132989292358,842.2827720595405],[-48.50779474936056,-34.41565844525704,690.0553230329961],[-25.964772934070005,-32.20446571749559,664.2737692265573],[-5.7234437193740435,-25.96923622010525,769.0679437663048],[11.147344141182593,-17.372385562849765,989.5153540557003],[25.17680504270105,-8.026360564188378,1297.0095929067356],[37.28779066217187,1.0216340748129547,1657.9237132613398],[48.25863611243733,9.22606047063631,2040.7097137233404],[58.645635744029654,16.34668051659738,2419.430888011575],[68.82204970536772,22.295559820024366,2774.418326599981],[79.01698270524868,27.048962178601673,3091.4830863433817],[89.33686887176698,30.606456439124997,3360.716885497747],[99.77918512790924,32.9781873184636,3575.377842681566],[110.25266134366251,34.18608693130214,3731.019031580301],[120.61290543783561,34.268549986140414,3824.871143000194],[130.70979969918838,33.281403849495135,3855.4420804262845],[140.43222328524615,31.292482445168012,3822.295321051887],[149.73599021594183,28.371682043827608,3725.980482051925],[158.65170162483557,24.580732293204708,3568.1071808448714],[167.27993547700837,19.966470999628367,3351.5699354357603],[175.78481575106517,14.560001578378454,3080.9488436754427],[-175.60480249088963,8.38378285439985,2763.1209635024506],[-166.58012043976854,1.4707399919909578,2408.1143006962666],[-156.71829515516328,-6.095668285469387,2030.1865590636226],[-145.42920122028036,-14.103653724296397,1648.9685428021658],[-131.9096520832634,-22.075017194753176,1290.1933178310856],[-115.23979480510877,-29.06948771417939,985.0383175313618],[-94.98635012134396,-33.58705540690097,766.7362007951406],[-72.4253849783932,-34.04289991153389,663.7465649723581],[-50.57675280313187,-29.965770703055544,691.2277100547735],[-31.74118213903403,-22.49819041233942,845.4105806831685],[-16.162298703198466,-13.400766251121418,1104.8998936513353],[-3.0321093858488077,-4.067827493829665,1438.0151096700292],[8.538691568920935,4.68382598432647,1811.2977558535922],[19.23258627075939,12.457898116168893,2195.2251974887213],[29.522465083032287,19.09184233580518,2566.418386373377],[39.71597428250497,24.531997290651862,2907.553014600152],[49.986569291499954,28.76772842741601,3206.3138788328242],[60.39008432683926,31.80440380648956,3454.1932255359907],[70.88010512074082,33.65805200956095,3645.466667651285],[81.33515764020119,34.359057513159755,3776.426733570347],[91.60144440433086,33.9556564227091,3844.858176046616],[101.54145128081527,32.51187527849381,3849.713717624474],[111.07234487486717,30.099452656141096,3790.956100324579],[120.18422441971246,26.78711208302609,3669.546538363851],[128.9405843392537,22.631504027216838,3487.5776337723537],[137.47113909368846,17.672891733790255,3248.5652247196876],[145.9676061617766,11.937507111391973,2957.9294885122117],[154.69025058595705,5.449083374324207,2623.7011931328216],[163.99068898578503,-1.744708383891676,2257.473360665097],[174.35475113953538,-9.519038752907745,1875.5378525939077],[-173.5408182761935,-17.571749556392078,1499.9441190254156],[-158.81475698264637,-25.256945969839933,1158.8170821734502],[-140.63391809884135,-31.395083918798033,884.7617771392106],[-119.1339863318257,-34.34313796968927,710.080915137286],[-96.4875543707903,-32.83190905982559,658.8650948629793],[-75.75120102531532,-27.10699414038515,738.9900675703884],[-58.340062569985044,-18.72953114983643,939.0053749925955],[-43.893336350484155,-9.379254955393755,1232.2929527928072],[-31.498549532612305,-0.20372839460142214,1585.5259823948581],[-20.34397056413403,8.179363090816231,1966.349771501662],[-9.84082775563308,15.49005675310095,2347.6126368148916],[0.4083442406482899,21.622308444089402,2708.465545949708],[10.650323475454954,26.54588207072271,3033.7514804263765],[21.00486534986419,30.25914446086642,3312.8309290515],[31.479203972378826,32.77297958073201,3538.429556826074],[41.98794719633521,34.11058514388179,3705.716096128267],[52.38815640801796,34.31185307897196,3811.6375133219253],[62.52707933474751,33.43456719013359,3854.4801574313233],[72.2882392788257,31.549216005201426,3833.615951754339],[81.62111007414286,28.729027238849838,3749.404939999202],[90.5500716629553,25.03943624333792,3603.2412466523183],[99.16965268894049,20.530873471386144,3397.7474443574847],[107.63725191880778,15.23721439857178,3137.1382120510643],[116.17271529742892,9.181715139492782,2827.787982804117],[125.07127825601813,2.3938845444676438,2479.035725814648],[134.73467053322153,-5.054790284970092,2104.225944325206],[145.72197305430734,-12.98099712291178,1721.8625185411574],[158.80102062548897,-20.96321626843932,1356.4776651899238],[174.8922482800286,-28.15227500275888,1038.34535509131],[-165.42225786103242,-33.13448135472493,800.7262252609717],[-143.07365866260753,-34.2740699798056,673.6778499347129],[-120.91796469091469,-30.844718843524564,675.560907313361],[-101.53416265165896,-23.764989381075907,806.4285075749185],[-85.4596284524288,-14.780635460840212,1047.8571934806641],[-71.97205568566353,-5.380218691956589,1369.440298357872],[-60.16446361917896,3.5279693175850966,1737.4826550316939],[-49.31909366021615,11.489854955568036,2121.416515398586],[-38.934002836237234,18.313489688677375,2496.625074759786],[-28.680325036957004,23.93287571366144,2844.679142659844],[-18.368880580188005,28.333599136360476,3152.3928419191325],[-7.931987478343976,31.520858559781335,3410.6134241179843],[2.5920899812820504,33.511686453223284,3613.149857873449],[13.085785513868984,34.33779859730277,3755.956227976104],[23.394723225807834,34.04909266607966,3836.562853955217],[33.37722703064501,32.71186778210289,3853.716601649432],[42.94440826879203,30.40087694215525,3807.1927453115586],[52.079992922515785,27.188432339298416,3697.7559395100734],[60.84143026048046,23.13494363440257,3527.264437030057],[69.3523135884304,18.284041857912325,3298.9293622666582],[77.79697125430386,12.664086555174382,3017.755775981718],[86.42511011129585,6.298206554228291,2691.202667309114],[95.57203856186486,-0.7722191471917424,2330.0867279890626],[105.69845392541694,-8.439981521624592,1949.6945571667866],[117.44653325631546,-16.44158216885056,1570.891535050495],[131.6688035261323,-24.202496056398058,1220.6610628701728],[149.24386904250676,-30.64187281106788,930.9931467912238],[170.27961845474152,-34.16553963442832,734.791731215214],[-167.0600644201984,-33.35951760310218,658.4430981344103],[-145.87045627160026,-28.18866650085481,713.4451282369446],[-127.91171944260905,-20.075982433783032,891.9926221215555],[-113.02687223008715,-10.750105422509876,1169.7961668088728],[-100.33025365868814,-1.4598460412300307,1514.1253946784473],[-88.97931132597816,7.0989816994080845,1891.9733010615291],[-78.35168672972797,14.601709137497803,2275.0066092770294],[-68.0243300557194,20.92118849046714,2641.167775688259],[-57.73174927064371,26.019162308159178,2974.285513345547],[-47.34014181817735,29.892096649204923,3262.9448398017767],[-36.831930803989025,32.551330255753776,3499.3047680471927],[-26.286168882991383,34.021201497341615,3678.124860727473],[-15.843980340902963,34.34303415295757,3796.0524104234873],[-5.660580741398985,33.57652360979157,3851.142832680165],[4.142233696511108,31.794793533449464,3842.573036284267],[13.50754881522446,29.074419334726294,3770.5152271060333],[22.45351727731949,25.484599695207088,3636.155370009704],[31.06875551795756,21.07946249685428,3441.857529754042],[39.504256402091784,15.89586832216715,3191.4924747532086],[47.97147145656049,9.958293850334664,2890.962190949699],[56.75305751737065,3.2937432409841345,2548.9568491235996],[66.23112069918037,-4.036418933177406,2177.952745636191],[76.93534689921422,-11.873818208557644,1795.363680273239],[89.59772504939559,-19.847949343487596,1424.5152030390273],[105.12807407373579,-27.195424443824578,1094.677834428352],[124.22394798724343,-32.595926931287394,838.9019719715543],[146.2791165096691,-34.39600644177253,688.505540706672],[168.66594390148904,-31.639604304879146,664.7855011964975],[-171.41901520700375,-24.996153757477895,771.6142199620826],[-154.83250626943595,-16.16406378863934,993.8063040841362],[-140.96707235908045,-6.717620701752406,1302.5735793901686],[-128.9070121723486,2.3391148918554476,1664.2265654524863],[-117.8995609207842,10.488406182621858,2047.2516237114369],[-107.41233145134781,17.504760882654043,2425.795849603779],[-97.09399659006009,23.30753795736574,2780.285541040592],[-86.7387495117804,27.877431444304555,3096.6174736611965],[-76.26640872545813,31.21897808644825,3364.953138519286],[-65.70653867234581,33.3500162393899,3578.6047468478037],[-55.17237685439066,34.30349681544851,3733.1667555017257],[-44.81858512130707,34.13092116356578,3825.9020179020627],[-34.79090942073594,32.90082552140377,3855.3446127030566],[-25.184309178118074,30.690972466954708,3821.0810144867264],[-16.021481019166195,27.577297696237146,3723.6832171010337],[-7.2509831298464755,23.624049350756163,3564.784885871277],[1.2448699066911821,18.878365192033154,3347.308765446145],[9.64344320711503,13.37101794092614,3075.869871132566],[18.18464900813296,7.125111332399051,2757.3894804517286],[27.188672369700903,0.17696476501004402,2401.9512848001305],[37.09273744487126,-7.381389110129331,2023.8805798283083],[48.505714078972325,-15.32067995503514,1642.8838651516216],[62.247974467684706,-23.131573481706234,1284.7660509520665],[79.22366818496036,-29.82956789215685,980.7491079225465],[99.74695068071182,-33.88705445399508,764.0479525660066],[122.33101255566496,-33.78304185223333,663.0092242757164],[143.92192300508083,-29.206064509666522,692.5761374147778],[162.4300059811243,-21.405286784159298,848.7080094291987],[177.77312507169256,-12.135586457234204,1109.7694239466582],[-169.20968387980463,-2.745716575006505,1443.944664246762],[-157.64901664708643,5.984638023256126,1817.7567571573782],[-146.88806419982973,13.680814524434084,2201.743434415549],[-136.4767913000397,20.19123977371653,2572.6179346218332],[-126.12990624415164,25.467897224163494,2913.149274315453],[-115.6987650503231,29.504552905148394,3211.1020330610554],[-105.15484806196444,32.31265591392051,3458.0317874594366],[-94.57035219298528,33.917543033280396,3648.2627702780255],[-84.08422093325952,34.36189044651638,3778.1247844876916],[-73.85392121252926,33.7072541231855,3845.431957673599],[-64.0065500889815,32.029370346173245,3849.161561266137],[-54.60545610051127,29.408174514632417,3789.29872742136],[-45.638742367909266,25.916683122385116,3666.827399783776],[-37.02360680978555,21.612825690848837,3483.865500652896],[-28.615160389763247,16.536632314713398,3243.9593654955997],[-20.2097977561777,10.714185592317179,2952.567381446617],[-11.536505993866644,4.170775961657897,2617.768766863347],[-2.2314086481431437,-3.040701528615083,2251.21693243973],[8.207495372343741,-10.783634762395973,1869.2752306710563],[20.476529682101003,-18.733197527529004,1494.069255663756],[35.466386507691766,-26.205956565504874,1153.7885109979698],[53.96023460494931,-31.978648512191526,881.0627492151616],[75.64865373585083,-34.40943164366212,708.14265365964],[98.1841064486593,-32.34365056596492,658.9636103628573],[118.60427642346792,-26.18378802819103,741.1545175042793],[135.71608211284274,-17.545911070304093,942.9935613198941],[149.9800263478571,-8.077806277314311,1237.6579478722479],[162.30902558022686,1.1176222157047095,1591.7344963998003],[173.4898037006103,9.452976695226482,1972.8878203096547],[-175.91348878806517,16.66473585923725,2354.04494228728],[-165.52577327720365,22.655026611666287,2714.4524985780026],[-155.12367157828876,27.39836804597257,3039.0426298756265],[-144.6137880533479,30.89806952130708,3317.2491379439507],[-134.01642528409408,33.17253310194995,3541.8548363131786],[-123.44001668845479,34.25583641261518,3708.0721199553145],[-113.0392146604071,34.201015632272146,3812.8816536278064],[-102.96370863000527,33.07880225879395,3854.5968504608218],[-93.31456874250972,30.969962335740473,3832.612973459928],[-84.12096770908764,27.9540859399501,3747.3122272316414],[-75.3374586827648,24.099334986640333,3600.1121846317174],[-66.85209249202377,19.45648883191161,3393.662390124452],[-58.49406344591704,14.058979980677629,3132.2106880973433],[-50.0325647906841,7.930409444553254,2822.1734014674557],[-41.16140746698689,1.103111885128076,2472.942450762249],[-31.46525712961969,-6.343863503604766,2097.9273285308245],[-20.367062286612857,-14.211444574869928,1715.7063675317913],[-7.080710522383788,-22.049454893537877,1350.8859638480453],[9.307252452036256,-28.965932379395483,1033.7930497449997],[29.280499649994233,-33.512987393731215,797.6873696180955],[51.700135949474806,-34.09955297866877,672.5354844792919],[73.63063710390882,-30.15116456344385,676.501698901654],[92.68324082661883,-22.71049782255631,809.3709530138467],[108.50357917289959,-13.531857023514341,1052.4640157470085],[121.86068337509013,-4.060021013398394,1375.2139391935461],[133.64520116619533,4.836209888652581,1743.8860543251794],[144.5488660194433,12.726598625110265,2127.962083663064],[155.05011493589384,19.431495621502005,2502.9153668788595],[165.45518189042008,24.891155614006646,2850.411874170837],[175.92838185255684,29.095714510610694,3157.3492789288675],[-173.4901635129725,32.05633534328616,3414.6415602236057],[-162.86526788486006,33.79917852273512,3616.14906467549],[-152.333274439371,34.368183762127416,3757.8651229564857],[-142.05369086768363,33.8267080191583,3837.3506946527323],[-132.15886948046256,32.253071076455434,3853.377850900747],[-122.71867045754468,29.730581159538513,3805.7443949298586],[-113.72748959480303,26.336122696592877,3695.237282844795],[-105.1082688358402,22.131525178901214,3523.7393034136912],[-96.72196547829155,17.160163075935372,3294.4905901537613],[-88.37230031298517,11.450057540861906,3012.532437964598],[-79.7990531900594,5.02549433687739,2685.3697665067284],[-70.65524262472988,-2.0676510824163636,2323.8768846973508],[-60.464861277598175,-9.711662086484937,1943.40962593937],[-48.56652711865433,-17.622447439766148,1564.9093559065668],[-34.09495205146443,-25.19042083191439,1215.4285469499773],[-16.207335446931612,-31.290263595327605,926.9934701141565],[5.050259288431268,-34.316510424242715,732.4757115422608],[27.64735749102264,-32.95096419749715,658.1284256812778],[48.53684165119617,-27.319779415555566,715.2166263840545],[66.18335382442328,-18.92048909465817,895.659260502488],[80.86635433826092,-9.458104609231368,1174.940946884759],[93.48151978387956,-0.1359089477023054,1520.2200361293899],[104.84755323565587,8.383097110715045,1898.4916681694904],[115.56151945314127,15.792516647135134,2281.494239081013],[126.02359355026806,21.97436554314472,2647.26601356668],[136.4757245921379,26.89552069205757,2979.727581765177],[147.02526687265492,30.557400023175337,3267.541120366569],[157.66179893004167,32.97869069229254,3502.925953510886],[168.28217741855153,34.19446439194809,3680.6877502146135],[178.73210553824822,34.25921520873885,3797.509178417353],[-171.1419304738472,33.24582142851871,3851.4737272050925],[-161.4471325207,31.238039806640188,3841.7820813764893],[-152.21923899658202,28.31914790825931,3768.6285486221477],[-143.41879716936808,24.561291308643813,3633.2219018046862],[-134.93945222973724,20.01901668380914,3437.9522031014376],[-126.61660268389433,14.728645446287127,3186.721660298126],[-118.2278938352979,8.714727346856657,2885.4719573977854],[-109.48009744086869,2.006572943128816,2542.943547388035],[-99.97823296760085,-5.327815580186199,2171.6750243907245],[-89.17547136090582,-13.11589103227524,1789.152972449816],[-76.3209845522454,-20.960876690597296,1418.7784388965465],[-60.504976913586475,-28.058483348021035,1089.8819850087712],[-41.10895761276879,-33.04955192235702,835.527917321433],[-18.93745844916843,-34.30754228854171,686.9649202734736],[3.262049035828202,-31.0163104133374,665.3140245971063],[22.84677348941171,-23.98422271871118,774.1868725280519],[39.16144146254951,-14.934548524362615,998.1300081679683],[52.878274874135606,-5.401078664648171,1308.1703602390826],[64.90153298857693,3.653748971316873,1670.556164466927],[75.95787905030733,11.738353123778493,2053.8103185653636],[86.55551674283964,18.640991548257624,2432.166333702543],[97.0228332981371,24.287978898192076,2786.147456017914],[107.54069468279597,28.664748157831767,3101.7372216761687],[118.16150945265122,31.781706834008073,3369.167596797178],[128.828431204378,33.665638748269075,3581.8050473734274],[139.40814674755364,34.3616399049129,3735.2854071049005],[149.7393645303523,33.93480095794891,3826.903565109292],[159.68450805555648,32.46599141205532,3855.2195751283043],[169.16713978025783,30.041898593184946,3819.8426665604366],[178.18649418441245,26.743328540257785,3721.3668808357706],[-173.1860586359984,22.636101703109688,3561.4495642239735],[-164.8170970857952,17.767097578755287,3343.041299308268]]}}
